{
    "links": {
        "self": "http://www.neowsapp.com/rest/v1/neo/3753856?api_key=iIulBulltgU6a56xZRHN4H3l9WmuAYTsLGpBGhQ2"
    },
    "id": "3753856",
    "neo_reference_id": "3753856",
    "name": "(2016 LH10)",
    "designation": "2016 LH10",
    "nasa_jpl_url": "http://ssd.jpl.nasa.gov/sbdb.cgi?sstr=3753856",
    "absolute_magnitude_h": 25.2,
    "estimated_diameter": {
        "kilometers": {
            "estimated_diameter_min": 0.0242412481,
            "estimated_diameter_max": 0.0542050786
        },
        "meters": {
            "estimated_diameter_min": 24.2412481101,
            "estimated_diameter_max": 54.2050786336
        },
        "miles": {
            "estimated_diameter_min": 0.0150628086,
            "estimated_diameter_max": 0.0336814639
        },
        "feet": {
            "estimated_diameter_min": 79.5316564495,
            "estimated_diameter_max": 177.8381901842
        }
    },
    "is_potentially_hazardous_asteroid": false,
    "close_approach_data": [
        {
            "close_approach_date": "2016-06-22",
            "close_approach_date_full": "2016-Jun-22 19:04",
            "epoch_date_close_approach": 1466622240000,
            "relative_velocity": {
                "kilometers_per_second": "8.6584724704",
                "kilometers_per_hour": "31170.5008936052",
                "miles_per_hour": "19368.1370691404"
            },
            "miss_distance": {
                "astronomical": "0.0573601752",
                "lunar": "22.3131081528",
                "kilometers": "8580960.032746824",
                "miles": "5331961.3180172112"
            },
            "orbiting_body": "Earth"
        },
        {
            "close_approach_date": "2017-02-02",
            "close_approach_date_full": "2017-Feb-02 08:01",
            "epoch_date_close_approach": 1486022460000,
            "relative_velocity": {
                "kilometers_per_second": "9.0589384901",
                "kilometers_per_hour": "32612.1785642804",
                "miles_per_hour": "20263.9395084553"
            },
            "miss_distance": {
                "astronomical": "0.496347508",
                "lunar": "193.079180612",
                "kilometers": "74252529.97660796",
                "miles": "46138382.662231448"
            },
            "orbiting_body": "Earth"
        },
        {
            "close_approach_date": "2021-12-23",
            "close_approach_date_full": "2021-Dec-23 09:42",
            "epoch_date_close_approach": 1640252520000,
            "relative_velocity": {
                "kilometers_per_second": "24.2033473692",
                "kilometers_per_hour": "87132.0505291099",
                "miles_per_hour": "54140.4677301572"
            },
            "miss_distance": {
                "astronomical": "0.4950922349",
                "lunar": "192.5908793761",
                "kilometers": "74064743.794579663",
                "miles": "46021697.7394708294"
            },
            "orbiting_body": "Earth"
        },
        {
            "close_approach_date": "2117-12-01",
            "close_approach_date_full": "2117-Dec-01 06:29",
            "epoch_date_close_approach": 4667783340000,
            "relative_velocity": {
                "kilometers_per_second": "10.2092201119",
                "kilometers_per_hour": "36753.1924027129",
                "miles_per_hour": "22837.0044682301"
            },
            "miss_distance": {
                "astronomical": "0.0312621978",
                "lunar": "12.1609949442",
                "kilometers": "4676758.202398686",
                "miles": "2906002.7938304268"
            },
            "orbiting_body": "Earth"
        }
    ],
    "orbital_data": {
        "orbit_id": "6",
        "orbit_determination_date": "2017-04-06 08:25:27",
        "first_observation_date": "2016-06-07",
        "last_observation_date": "2016-06-15",
        "data_arc_in_days": 8,
        "observations_used": 18,
        "orbit_uncertainty": "8",
        "minimum_orbit_intersection": ".0158044",
        "jupiter_tisserand_invariant": "5.279",
        "epoch_osculation": "2457547.5",
        "eccentricity": ".3149285946726142",
        "semi_major_axis": "1.189274416153019",
        "inclination": "5.01269716251737",
        "ascending_node_longitude": "235.4708710484924",
        "orbital_period": "473.7198045618064",
        "perihelion_distance": ".8147378955938551",
        "perihelion_argument": "116.6379173374727",
        "aphelion_distance": "1.563810936712183",
        "perihelion_time": "2457625.266443445981",
        "mean_anomaly": "300.9019437841541",
        "mean_motion": ".7599428956384928",
        "equinox": "J2000",
        "orbit_class": {
            "orbit_class_type": "APO",
            "orbit_class_description": "Near-Earth asteroid orbits which cross the Earth’s orbit similar to that of 1862 Apollo",
            "orbit_class_range": "a (semi-major axis) > 1.0 AU; q (perihelion) < 1.017 AU"
        }
    },
    "is_sentry_object": false
}